10P/Tempel,e,12.0398,117.8100,195.5181,3.060651,0.1840701,0.53851495,321.2902,08/26.0/2020,2000,g  5.0,10.0
# From MPEC 2017-L52
11P/Tempel-Swift-LINEAR,e,14.4204,238.9182,167.9391,3.282880,0.1656997,0.57694931,344.7195,08/26.0/2020,2000,g  9.0,4.0
# From  27, 604
12P/Pons-Brooks,e,74.0825,255.7181,199.0376,17.09466,0.0139448,0.95429690,341.3964,08/26.0/2020,2000,g  5.0,6.0
# From  27, 604
13P/Olbers,e,44.6264,85.8565,64.5379,16.67851,0.0144700,0.92971348,339.6630,08/26.0/2020,2000,g  5.0,6.0
# From MPC100283
14P/Wolf,e,27.9036,202.0757,158.9815,4.259098,0.1121315,0.35667323,111.8872,08/26.0/2020,2000,g  5.5,12.0
# From MPC 92276
15P/Finlay,e,6.7977,13.7222,347.8359,3.504327,0.1502440,0.71698034,311.6867,08/26.0/2020,2000,g 12.0,4.0
# From MPC 92276
16P/Brooks,e,3.0110,138.8714,245.1416,3.659533,0.1407880,0.48680553,326.9066,08/26.0/2020,2000,g  7.5,10.0
# From MPC114607
17P/Holmes,e,19.0281,326.6242,24.4836,3.638497,0.1420107,0.42821439,334.7424,08/26.0/2020,2000,g 10.0,6.0
# From MPC 92984
19P/Borrelly,e,29.3893,74.4033,351.8171,3.605885,0.1439416,0.63835512,284.4928,08/26.0/2020,2000,g  4.5,10.0
# From MPC111773
21P/Giacobini-Zinner,e,32.0154,195.3627,172.8473,3.495982,0.1507823,0.71068889,107.8985,08/26.0/2020,2000,g  9.0,6.0
# From MPC 94283
22P/Kopff,e,4.7420,120.8372,162.9657,3.442747,0.1542930,0.54889703,272.2068,08/26.0/2020,2000,g  3.0,10.4
# From MPC 14747
23P/Brorsen-Metcalf,e,19.1341,312.4157,128.8216,16.95442,0.0141182,0.97104057,0.0000,08/11.0609/1989,2000,g 10.0,6.0
# From MPC110085
24P/Schaumasse,e,11.6532,79.2742,57.7913,4.057505,0.1205911,0.70871266,122.1196,08/26.0/2020,2000,g  6.5,14.0
# From MPC 94674
26P/Grigg-Skjellerup,e,22.4427,211.5392,2.1939,3.013964,0.1883636,0.64060143,130.7970,08/26.0/2020,2000,g 12.0,16.0
# From MPC 78188
27P/Crommelin,e,29.1389,250.5820,195.9898,9.189534,0.0353805,0.91798667,117.4920,08/26.0/2020,2000,g 12.0,8.0
# From MPEC 2020-K19
28P/Neujmin,e,14.3109,346.3412,347.4251,6.975744,0.0534956,0.77378333,349.4123,08/26.0/2020,2000,g  8.5,6.0
# From MPEC 2020-K19
29P/Schwassmann-Wachmann,e,9.3668,312.3751,48.3826,6.033983,0.0664964,0.04417477,35.1770,08/26.0/2020,2000,g  4.0,4.0
# From MPC110085
30P/Reinmuth,e,8.5581,118.9184,11.9141,3.694618,0.1387873,0.52733643,151.4680,08/26.0/2020,2000,g  9.5,6.0
# From MPC108597
31P/Schwassmann-Wachmann,e,4.5473,114.1145,18.2534,4.240891,0.1128544,0.19238047,47.1147,08/26.0/2020,2000,g  5.0,8.0
# From MPC 92276
32P/Comas Sola,e,9.9235,57.4188,53.4726,4.496576,0.1033668,0.55810191,221.4214,08/26.0/2020,2000,g  6.5,8.0
# From MPEC 2013-O31
33P/Daniel,e,22.3234,66.3505,20.6146,4.082910,0.1194674,0.45235238,176.0235,08/26.0/2020,2000,g 10.0,12.0
# From  15, 452
35P/Herschel-Rigollet,e,64.802,356.435,29.054,28.5670,0.006455,0.9735307,0.000,12/23.5682/2091,2000,g  9.0,4.0
# From MPC105240
36P/Whipple,e,9.9522,181.8619,200.7817,4.130988,0.1173879,0.26854307,10.1327,08/26.0/2020,2000,g  8.5,6.0
# From MPEC 2018-HA5
37P/Forbes,e,8.9574,314.5609,330.0893,3.459361,0.1531829,0.53409701,129.3943,08/26.0/2020,2000,g 10.5,4.8
# From MPEC 2018-S50
38P/Stephan-Oterma,e,18.3548,77.9910,359.5372,11.25250,0.0261114,0.85893274,17.0796,08/26.0/2020,2000,g  3.5,12.0
# From MPC115887
39P/Oterma,e,1.5612,299.2558,95.1111,7.405314,0.0489090,0.22400071,311.5260,08/26.0/2020,2000,g  7.0,6.0
# From MPC100283
40P/Vaisala,e,11.4697,133.7810,47.4609,4.950881,0.0894706,0.62991138,189.0597,08/26.0/2020,2000,g  5.5,12.0
# From MPC105240
41P/Tuttle-Giacobini-Kresak,e,9.2210,140.9944,62.2637,3.086183,0.1817906,0.66023716,223.9549,08/26.0/2020,2000,g 10.0,16.0
# From MPC 94283
42P/Neujmin,e,3.9895,150.1889,147.1779,4.872916,0.0916264,0.58546365,179.9537,08/26.0/2020,2000,g 13.0,6.0
# From MPC102956
43P/Wolf-Harrington,e,9.3814,244.3894,224.0632,4.307721,0.1102383,0.43835931,160.8949,08/26.0/2020,2000,g  8.0,6.0
# From MPEC 2020-HN5
44P/Reinmuth,e,5.8984,286.4815,58.1336,3.688658,0.1391238,0.42715775,275.7506,08/26.0/2020,2000,g  8.3,6.0
# From MPC103849
45P/Honda-Mrkos-Pajdusakova,e,4.3248,87.7026,327.9529,3.050237,0.1850136,0.81761042,247.5818,08/26.0/2020,2000,g 13.5,8.0
# From MPC114607
46P/Wirtanen,e,11.7437,82.1568,356.3623,3.091727,0.1813019,0.65831410,112.8215,08/26.0/2020,2000,g 14.0,6.0
# From NK 2718
47P/Ashbrook-Jackson,e,13.0351,356.9259,357.6047,4.124982,0.1176443,0.31797786,137.9266,08/26.0/2020,2000,g  9.0,4.0
# From MPEC 2015-M77
48P/Johnson,e,12.2081,110.1268,216.6210,3.500459,0.1504931,0.42736793,112.0412,08/26.0/2020,2000,g  9.0,4.0
# From MPEC 2020-K19
49P/Arend-Rigaux,e,19.0460,118.7971,332.9718,3.569932,0.1461215,0.59854480,112.9573,08/26.0/2020,2000,g 11.3,4.4
# From MPEC 2015-S97
50P/Arend,e,19.0982,355.1615,49.3360,4.089375,0.1191842,0.52861351,198.2481,08/26.0/2020,2000,g  9.5,6.0
# From NK 3013
51P-A/Harrington,e,5.4256,83.6717,269.2484,3.708108,0.1380306,0.54306037,254.1358,08/26.0/2020,2000,g 16.0,8.0
# From NK 3014
51P-A/Harrington,e,5.4249,83.6873,269.2091,3.709129,0.1379737,0.54313285,253.8785,08/26.0/2020,2000,g 10.0,8.0
# From NK 3014
51P-A/Harrington,e,5.4249,83.6873,269.2091,3.709111,0.1379747,0.54312976,253.8818,08/26.0/2020,2000,g 10.0,8.0
# From MPEC 2015-L08
51P-D/Harrington,e,5.4264,83.6772,269.1985,3.708197,0.1380257,0.54307459,254.1308,08/26.0/2020,2000,g 16.0,8.0
# From MPEC 2015-L08
51P-D/Harrington,e,5.4264,83.6762,269.1993,3.708185,0.1380264,0.54307516,254.1359,08/26.0/2020,2000,g 16.0,8.0
# From NK 3013
51P-D/Harrington,e,5.4256,83.6720,269.2481,3.708107,0.1380307,0.54306056,254.1359,08/26.0/2020,2000,g 16.0,8.0
# From NK 3013
51P-D/Harrington,e,5.4256,83.6720,269.2481,3.708107,0.1380307,0.54306069,254.1359,08/26.0/2020,2000,g 16.0,8.0
# From MPC 88330
52P/Harrington-Abell,e,10.2315,336.8383,139.5981,3.862492,0.1298383,0.53980671,307.3831,08/26.0/2020,2000,g 13.5,6.0
# From MPC100283
53P/Van Biesbroeck,e,6.6083,148.8296,134.4170,5.425040,0.0780009,0.55222993,123.0861,08/26.0/2020,2000,g  7.7,4.8
# From MPC 89011
54P/de Vico-Swift-NEAT,e,6.0620,358.8142,1.7636,3.792867,0.1334297,0.42553174,163.8480,08/26.0/2020,2000,g  9.0,4.0
# From MPC 31070
55P/Tempel-Tuttle,e,162.3880,235.4044,172.5332,10.34974,0.0296012,0.90659851,244.0599,08/26.0/2020,2000,g  9.0,4.0
# From MPC101100
56P/Slaughter-Burnham,e,8.1584,345.9841,44.0096,5.071523,0.0862972,0.50692646,129.4043,08/26.0/2020,2000,g  8.5,6.0
# From MPC 98565
57P/du Toit-Neujmin-Delporte,e,2.8505,188.7775,115.2339,3.446678,0.1540292,0.50078693,295.7048,08/26.0/2020,2000,g 12.5,6.0
# From MPEC 2020-HN5
58P/Jackson-Neujmin,e,13.1064,159.0817,200.4638,4.083545,0.1194395,0.66266788,10.8144,08/26.0/2020,2000,g  5.5,10.0
# From MPC111774
59P/Kearns-Kwee,e,9.3415,312.8342,127.6020,4.488923,0.1036313,0.47486620,73.5280,08/26.0/2020,2000,g  7.0,6.0
# From MPEC 2015-M77
60P/Tsuchinshan,e,3.6023,267.5888,216.8023,3.518228,0.1493544,0.53679866,93.1832,08/26.0/2020,2000,g  9.0,4.0
# From MPEC 2015-Q71
61P/Shajn-Schaldach,e,5.9988,162.9868,221.8851,3.685045,0.1393285,0.42382823,249.9898,08/26.0/2020,2000,g  6.0,10.0
# From MPC109147
62P/Tsuchinshan,e,5.1720,74.0551,42.8584,3.324661,0.1625859,0.64353938,163.3399,08/26.0/2020,2000,g  8.0,10.0
# From MPC 84320
63P/Wild,e,19.7348,358.0178,169.1417,5.605084,0.0742730,0.64897291,200.4543,08/26.0/2020,2000,g 10.5,6.0
# From MPC111774
64P/Swift-Gehrels,e,8.9505,300.0028,97.0884,4.454738,0.1048264,0.68763923,69.2950,08/26.0/2020,2000,g  9.5,12.0
# From MPC104795
65P/Gunn,e,9.1823,62.0238,213.8103,3.884450,0.1287389,0.24980980,134.2982,08/26.0/2020,2000,g  5.0,6.0
# From MPC109147
66P/du Toit,e,18.6587,21.8639,257.3134,6.063513,0.0660112,0.78693821,54.7750,08/26.0/2020,2000,g  9.0,4.0
# From MPC 89011
67P/Churyumov-Gerasimenko,e,3.8761,36.5813,21.9632,3.458141,0.1532639,0.65102442,293.6890,08/26.0/2020,2000,g 11.0,4.0
# From MPC 75716
68P/Klemola,e,11.1103,175.0772,153.0836,4.950333,0.0894855,0.63758136,26.0334,08/26.0/2020,2000,g 10.0,4.0
# From MPC114607
69P/Taylor,e,22.0330,104.8307,343.4973,3.888989,0.1285136,0.41304494,67.6956,08/26.0/2020,2000,g  9.5,12.0
# From MPC 92276
70P/Kojima,e,6.5982,119.2672,1.8543,3.675645,0.1398633,0.45341940,299.2685,08/26.0/2020,2000,g 11.0,6.0
# From MPC107051
71P/Clark,e,9.4404,59.4338,209.0231,3.138217,0.1772881,0.49415957,204.2968,08/26.0/2020,2000,g  9.8,6.0
# From MPC 89011
72P/Denning-Fujikawa,e,10.9332,26.6895,346.6732,4.311562,0.1100911,0.81811849,247.2414,08/26.0/2020,2000,g 17.5,10.0
# From MPC106348
73P/Schwassmann-Wachmann,e,11.2330,69.6465,199.4466,3.093064,0.1811844,0.68568043,227.8311,08/26.0/2020,2000,g 11.5,6.0
# From MPC106348
73P-T/Schwassmann-Wachmann,e,11.2351,69.6491,199.4281,3.094625,0.1810473,0.68588342,227.6597,08/26.0/2020,2000,g 11.5,6.0
# From MPEC 2020-M07
74P/Smirnova-Chernykh,e,6.5590,76.7346,92.8680,4.223743,0.1135423,0.15390639,102.9482,08/26.0/2020,2000,g  5.0,6.0
# From MPC118097
76P/West-Kohoutek-Ikemura,e,30.4569,84.1226,0.0002,3.473869,0.1522242,0.53811331,46.4122,08/26.0/2020,2000,g  8.0,12.0
# From MPC100283
77P/Longmore,e,24.3234,14.7952,196.8659,3.620677,0.1430604,0.35234438,224.0619,08/26.0/2020,2000,g  7.0,8.0
# From MPEC 2016-U66
78P/Gehrels,e,6.2492,210.5310,192.6492,3.739712,0.1362846,0.46177869,69.6885,08/26.0/2020,2000,g  9.0,4.0
# From MPC 94675
79P/du Toit-Hartley,e,3.1480,280.5260,281.8213,2.942798,0.1952376,0.61895947,139.1830,08/26.0/2020,2000,g 16.0,4.0
# From MPEC 2014-P41
80P/Peters-Hartley,e,29.9412,259.8217,339.2543,4.024256,0.1220888,0.59904527,258.1045,08/26.0/2020,2000,g  9.0,4.0
# From MPC105241
81P/Wild,e,3.2368,136.1017,41.7107,3.450615,0.1537657,0.53712489,230.5529,08/26.0/2020,2000,g  7.0,6.0
# From MPEC 2020-L06
82P/Gehrels,e,1.1284,239.3114,226.8386,4.136608,0.1171487,0.12173752,92.7696,08/26.0/2020,2000,g  5.0,8.0
# From MPEC 2020-K19
84P/Giclas,e,7.5522,108.1748,281.5649,3.547993,0.1474789,0.51554481,12.2672,08/26.0/2020,2000,g  9.5,8.0
# From MPC109147
86P/Wild,e,15.4746,72.3714,179.3337,3.603690,0.1440731,0.37259815,283.5863,08/26.0/2020,2000,g 11.0,6.0
# From MPEC 2020-K19
